{
  "type": "FeatureCollection",
  "features": [
    {
      "type": "Feature",
      "properties": {
        "norad_id": 29807,
        "name": "FENGYUN 1C DEB",
        "group": "fengyun-1c-debris",
        "lat": -8.421699389676938,
        "lon": 168.2722163133191,
        "alt_km": 917.0805583386,
        "timestamp": "2025-12-10T21:43:22.359308+00:00",
        "meta_object_name": "FENGYUN 1C DEB",
        "meta_object_id": "1999-025CZ",
        "meta_epoch": "2025-12-10T12:18:14.121216",
        "meta_mean_motion": 14.08654616,
        "meta_eccentricity": 0.00796039,
        "meta_inclination": 98.7549,
        "meta_ra_of_asc_node": 349.1985,
        "meta_arg_of_pericenter": 338.2719,
        "meta_mean_anomaly": 21.508,
        "meta_ephemeris_type": 0,
        "meta_classification_type": "U",
        "meta_norad_cat_id": 29807,
        "meta_element_set_no": 999,
        "meta_rev_at_epoch": 97063,
        "meta_bstar": 0.00045587332,
        "meta_mean_motion_dot": 7.64e-06,
        "meta_mean_motion_ddot": 0,
        "tle_line1": "1 29807U 99025CZ  25344.51266344  .00000764  00000+0  45587-3 0  9998",
        "tle_line2": "2 29807  98.7549 349.1985 0079603 338.2719  21.5080 14.08654616970639"
      },
      "geometry": {
        "type": "Point",
        "coordinates": [
          168.2722163133191,
          -8.421699389676938
        ]
      }
    },
    {
      "type": "Feature",
      "properties": {
        "norad_id": 29808,
        "name": "FENGYUN 1C DEB",
        "group": "fengyun-1c-debris",
        "lat": -80.91945259432715,
        "lon": -0.46521144238941337,
        "alt_km": 524.2256418228453,
        "timestamp": "2025-12-10T21:43:22.359318+00:00",
        "meta_object_name": "FENGYUN 1C DEB",
        "meta_object_id": "1999-025DA",
        "meta_epoch": "2025-12-10T06:53:45.056256",
        "meta_mean_motion": 15.20012558,
        "meta_eccentricity": 0.0018441,
        "meta_inclination": 99.0144,
        "meta_ra_of_asc_node": 262.1543,
        "meta_arg_of_pericenter": 94.6945,
        "meta_mean_anomaly": 35.1505,
        "meta_ephemeris_type": 0,
        "meta_classification_type": "U",
        "meta_norad_cat_id": 29808,
        "meta_element_set_no": 999,
        "meta_rev_at_epoch": 98188,
        "meta_bstar": 0.019081,
        "meta_mean_motion_dot": 0.00437584,
        "meta_mean_motion_ddot": 0,
        "tle_line1": "1 29808U 99025DA  25344.28732704  .00437584  00000+0  19081-1 0  9993",
        "tle_line2": "2 29808  99.0144 262.1543 0018441  94.6945  35.1505 15.20012558981886"
      },
      "geometry": {
        "type": "Point",
        "coordinates": [
          -0.46521144238941337,
          -80.91945259432715
        ]
      }
    },
    {
      "type": "Feature",
      "properties": {
        "norad_id": 29809,
        "name": "FENGYUN 1C DEB",
        "group": "fengyun-1c-debris",
        "lat": -38.74071997039656,
        "lon": -44.44832943631158,
        "alt_km": 674.9211906125429,
        "timestamp": "2025-12-10T21:43:22.359328+00:00",
        "meta_object_name": "FENGYUN 1C DEB",
        "meta_object_id": "1999-025DB",
        "meta_epoch": "2025-12-10T10:51:01.807200",
        "meta_mean_motion": 14.46580793,
        "meta_eccentricity": 0.01162881,
        "meta_inclination": 98.8599,
        "meta_ra_of_asc_node": 307.8889,
        "meta_arg_of_pericenter": 356.8754,
        "meta_mean_anomaly": 126.8677,
        "meta_ephemeris_type": 0,
        "meta_classification_type": "U",
        "meta_norad_cat_id": 29809,
        "meta_element_set_no": 999,
        "meta_rev_at_epoch": 99434,
        "meta_bstar": 0.00063682746,
        "meta_mean_motion_dot": 2.444e-05,
        "meta_mean_motion_ddot": 0,
        "tle_line1": "1 29809U 99025DB  25344.45210425  .00002444  00000+0  63683-3 0  9996",
        "tle_line2": "2 29809  98.8599 307.8889 0116288 356.8754 126.8677 14.46580793994348"
      },
      "geometry": {
        "type": "Point",
        "coordinates": [
          -44.44832943631158,
          -38.74071997039656
        ]
      }
    },
    {
      "type": "Feature",
      "properties": {
        "norad_id": 29810,
        "name": "FENGYUN 1C DEB",
        "group": "fengyun-1c-debris",
        "lat": 75.82337689971126,
        "lon": -118.4267472033135,
        "alt_km": 775.9355425749827,
        "timestamp": "2025-12-10T21:43:22.359338+00:00",
        "meta_object_name": "FENGYUN 1C DEB",
        "meta_object_id": "1999-025DC",
        "meta_epoch": "2025-12-10T08:05:54.255264",
        "meta_mean_motion": 14.291248,
        "meta_eccentricity": 0.0067046,
        "meta_inclination": 99.2069,
        "meta_ra_of_asc_node": 21.027,
        "meta_arg_of_pericenter": 25.8881,
        "meta_mean_anomaly": 35.1406,
        "meta_ephemeris_type": 0,
        "meta_classification_type": "U",
        "meta_norad_cat_id": 29810,
        "meta_element_set_no": 999,
        "meta_rev_at_epoch": 98343,
        "meta_bstar": 0.00039703,
        "meta_mean_motion_dot": 9.83e-06,
        "meta_mean_motion_ddot": 0,
        "tle_line1": "1 29810U 99025DC  25344.33743351  .00000983  00000+0  39703-3 0  9996",
        "tle_line2": "2 29810  99.2069  21.0270 0067046  25.8881  35.1406 14.29124800983431"
      },
      "geometry": {
        "type": "Point",
        "coordinates": [
          -118.4267472033135,
          75.82337689971126
        ]
      }
    },
    {
      "type": "Feature",
      "properties": {
        "norad_id": 29812,
        "name": "FENGYUN 1C DEB",
        "group": "fengyun-1c-debris",
        "lat": 22.250790174873217,
        "lon": -2.6605932338794926,
        "alt_km": 991.2048034000145,
        "timestamp": "2025-12-10T21:43:22.359349+00:00",
        "meta_object_name": "FENGYUN 1C DEB",
        "meta_object_id": "1999-025DE",
        "meta_epoch": "2025-12-07T01:05:47.261760",
        "meta_mean_motion": 14.01959129,
        "meta_eccentricity": 0.01444592,
        "meta_inclination": 98.3498,
        "meta_ra_of_asc_node": 170.3581,
        "meta_arg_of_pericenter": 343.8427,
        "meta_mean_anomaly": 145.6696,
        "meta_ephemeris_type": 0,
        "meta_classification_type": "U",
        "meta_norad_cat_id": 29812,
        "meta_element_set_no": 999,
        "meta_rev_at_epoch": 96092,
        "meta_bstar": 0.0016935691,
        "meta_mean_motion_dot": 2.789e-05,
        "meta_mean_motion_ddot": 0,
        "tle_line1": "1 29812U 99025DE  25341.04568590  .00002789  00000+0  16936-2 0  9991",
        "tle_line2": "2 29812  98.3498 170.3581 0144459 343.8427 145.6696 14.01959129960922"
      },
      "geometry": {
        "type": "Point",
        "coordinates": [
          -2.6605932338794926,
          22.250790174873217
        ]
      }
    },
    {
      "type": "Feature",
      "properties": {
        "norad_id": 29813,
        "name": "FENGYUN 1C DEB",
        "group": "fengyun-1c-debris",
        "lat": 78.26939499986072,
        "lon": -127.46546772833918,
        "alt_km": 859.3431650761577,
        "timestamp": "2025-12-10T21:43:22.359359+00:00",
        "meta_object_name": "FENGYUN 1C DEB",
        "meta_object_id": "1999-025DF",
        "meta_epoch": "2025-12-10T07:43:31.193184",
        "meta_mean_motion": 14.09450179,
        "meta_eccentricity": 0.0011749,
        "meta_inclination": 98.7277,
        "meta_ra_of_asc_node": 4.2567,
        "meta_arg_of_pericenter": 229.1867,
        "meta_mean_anomaly": 151.0885,
        "meta_ephemeris_type": 0,
        "meta_classification_type": "U",
        "meta_norad_cat_id": 29813,
        "meta_element_set_no": 999,
        "meta_rev_at_epoch": 97226,
        "meta_bstar": 6.2876e-05,
        "meta_mean_motion_dot": 6.7e-07,
        "meta_mean_motion_ddot": 0,
        "tle_line1": "1 29813U 99025DF  25344.32188881  .00000067  00000+0  62876-4 0  9990",
        "tle_line2": "2 29813  98.7277   4.2567 0011749 229.1867 151.0885 14.09450179972260"
      },
      "geometry": {
        "type": "Point",
        "coordinates": [
          -127.46546772833918,
          78.26939499986072
        ]
      }
    },
    {
      "type": "Feature",
      "properties": {
        "norad_id": 29815,
        "name": "FENGYUN 1C DEB",
        "group": "fengyun-1c-debris",
        "lat": 73.32817508360037,
        "lon": -34.7636328815755,
        "alt_km": 618.5691265114119,
        "timestamp": "2025-12-10T21:43:22.359369+00:00",
        "meta_object_name": "FENGYUN 1C DEB",
        "meta_object_id": "1999-025DH",
        "meta_epoch": "2025-12-10T11:31:59.132928",
        "meta_mean_motion": 14.63689426,
        "meta_eccentricity": 0.01839362,
        "meta_inclination": 98.0562,
        "meta_ra_of_asc_node": 353.0464,
        "meta_arg_of_pericenter": 142.2941,
        "meta_mean_anomaly": 219.132,
        "meta_ephemeris_type": 0,
        "meta_classification_type": "U",
        "meta_norad_cat_id": 29815,
        "meta_element_set_no": 999,
        "meta_rev_at_epoch": 99822,
        "meta_bstar": 0.00070000824,
        "meta_mean_motion_dot": 4.608e-05,
        "meta_mean_motion_ddot": 0,
        "tle_line1": "1 29815U 99025DH  25344.48054552  .00004608  00000+0  70001-3 0  9999",
        "tle_line2": "2 29815  98.0562 353.0464 0183936 142.2941 219.1320 14.63689426998222"
      },
      "geometry": {
        "type": "Point",
        "coordinates": [
          -34.7636328815755,
          73.32817508360037
        ]
      }
    }
  ]
}